COMMENT,ORIGINATOR,NORAD_CAT_ID,OBJECT_NAME,OBJECT_TYPE,CLASSIFICATION_TYPE,INTLDES,EPOCH,EPOCH_MICROSECONDS,MEAN_MOTION,ECCENTRICITY,INCLINATION,RA_OF_ASC_NODE,ARG_OF_PERICENTER,MEAN_ANOMALY,EPHEMERIS_TYPE,ELEMENT_SET_NO,REV_AT_EPOCH,BSTAR,MEAN_MOTION_DOT,MEAN_MOTION_DDOT,FILE,TLE_LINE0,TLE_LINE1,TLE_LINE2,OBJECT_ID,OBJECT_NUMBER,SEMIMAJOR_AXIS,PERIOD,APOGEE,PERIGEE,DECAYED
"GENERATED VIA SPACETRACK.ORG API","18 SPCS","55094","SPACEBEE-165","PAYLOAD","U","23001CP","2024-02-17 10:51:16","509024","15.33968999","0.0010027","97.4398","113.0241","216.2364","143.8201","0","999","6250","0.0014509","0.00047917","0","4191236","0 SPACEBEE-165","1 55094U 23001CP  24048.45227441  .00047917  00000-0  14509-2 0  9995","2 55094  97.4398 113.0241 0010027 216.2364 143.8201 15.33968999 62505","2023-001CP","55094","6842.122","93.874","470.847","457.126","0"
"GENERATED VIA SPACETRACK.ORG API","18 SPCS","55094","SPACEBEE-165","PAYLOAD","U","23001CP","2024-02-17 10:51:16","509024","15.33968999","0.0010027","97.4398","113.0241","216.2364","143.8201","0","999","6250","0.0014509","0.00047917","0","4191255","0 SPACEBEE-165","1 55094U 23001CP  24048.45227441  .00047917  00000-0  14509-2 0  9995","2 55094  97.4398 113.0241 0010027 216.2364 143.8201 15.33968999 62505","2023-001CP","55094","6842.122","93.874","470.847","457.126","0"
"GENERATED VIA SPACETRACK.ORG API","18 SPCS","55094","SPACEBEE-165","PAYLOAD","U","23001CP","2024-02-17 17:07:00","698592","15.33993726","0.0010061","97.4399","113.2871","215.5257","144.5317","0","999","6254","0.0014066","0.00046479","0","4191569","0 SPACEBEE-165","1 55094U 23001CP  24048.71320253  .00046479  00000-0  14066-2 0  9999","2 55094  97.4399 113.2871 0010061 215.5257 144.5317 15.33993726 62544","2023-001CP","55094","6842.048","93.873","470.797","457.029","0"
"GENERATED VIA SPACETRACK.ORG API","18 SPCS","55094","SPACEBEE-165","PAYLOAD","U","23001CP","2024-02-18 04:04:32","136960","15.34039502","0.0010036","97.44","113.747","213.8181","146.2422","0","999","6261","0.0014709","0.00048692","0","4192133","0 SPACEBEE-165","1 55094U 23001CP  24049.16981640  .00048692  00000-0  14709-2 0  9995","2 55094  97.4400 113.7470 0010036 213.8181 146.2422 15.34039502 62614","2023-001CP","55094","6841.912","93.870","470.643","456.910","0"
"GENERATED VIA SPACETRACK.ORG API","18 SPCS","55094","SPACEBEE-165","PAYLOAD","U","23001CP","2024-02-18 16:35:57","965568","15.3409336","0.0010073","97.44","114.2729","211.7717","148.2919","0","999","6269","0.0014458","0.00047937","0","4192427","0 SPACEBEE-165","1 55094U 23001CP  24049.69164312  .00047937  00000-0  14458-2 0  9994","2 55094  97.4400 114.2729 0010073 211.7717 148.2919 15.34093360 62693","2023-001CP","55094","6841.752","93.867","470.508","456.725","0"
"GENERATED VIA SPACETRACK.ORG API","18 SPCS","55094","SPACEBEE-165","PAYLOAD","U","23001CP","2024-02-18 16:35:57","965568","15.3409336","0.0010073","97.44","114.2729","211.7717","148.2919","0","999","6269","0.0014458","0.00047937","0","4192439","0 SPACEBEE-165","1 55094U 23001CP  24049.69164312  .00047937  00000-0  14458-2 0  9994","2 55094  97.4400 114.2729 0010073 211.7717 148.2919 15.34093360 62693","2023-001CP","55094","6841.752","93.867","470.508","456.725","0"
"GENERATED VIA SPACETRACK.ORG API","18 SPCS","55094","SPACEBEE-165","PAYLOAD","U","23001CP","2024-02-19 09:49:08","631552","15.34159783","0.0010116","97.4399","114.9958","209.1907","150.8771","0","999","6280","0.0013854","0.00046016","0","4193039","0 SPACEBEE-165","1 55094U 23001CP  24050.40912768  .00046016  00000-0  13854-2 0  9997","2 55094  97.4399 114.9958 0010116 209.1907 150.8771 15.34159783 62801","2023-001CP","55094","6841.554","93.862","470.340","456.498","0"
"GENERATED VIA SPACETRACK.ORG API","18 SPCS","55094","SPACEBEE-165","PAYLOAD","U","23001CP","2024-02-19 17:38:45","390048","15.34186138","0.0010105","97.4399","115.3245","208.1291","151.9407","0","999","6285","0.0012748","0.00042351","0","4193323","0 SPACEBEE-165","1 55094U 23001CP  24050.73524757  .00042351  00000-0  12748-2 0  9999","2 55094  97.4399 115.3245 0010105 208.1291 151.9407 15.34186138 62855","2023-001CP","55094","6841.476","93.861","470.254","456.428","0"
"GENERATED VIA SPACETRACK.ORG API","18 SPCS","55094","SPACEBEE-165","PAYLOAD","U","23001CP","2024-02-19 17:38:45","390048","15.34186138","0.0010105","97.4399","115.3245","208.1291","151.9407","0","999","6285","0.0012748","0.00042351","0","4193358","0 SPACEBEE-165","1 55094U 23001CP  24050.73524757  .00042351  00000-0  12748-2 0  9999","2 55094  97.4399 115.3245 0010105 208.1291 151.9407 15.34186138 62855","2023-001CP","55094","6841.476","93.861","470.254","456.428","0"
"GENERATED VIA SPACETRACK.ORG API","18 SPCS","55094","SPACEBEE-165","PAYLOAD","U","23001CP","2024-02-20 03:02:16","869696","15.34215313","0.0010081","97.4399","115.7189","206.9603","153.1117","0","999","6291","0.0011666","0.00038767","0","4193961","0 SPACEBEE-165","1 55094U 23001CP  24051.12658414  .00038767  00000-0  11666-2 0  9995","2 55094  97.4399 115.7189 0010081 206.9603 153.1117 15.34215313 62919","2023-001CP","55094","6841.389","93.859","470.151","456.357","0"
"GENERATED VIA SPACETRACK.ORG API","18 SPCS","55094","SPACEBEE-165","PAYLOAD","U","23001CP","2024-02-20 17:07:32","771136","15.34265635","0.0010028","97.4398","116.3107","204.7448","155.3315","0","999","6300","0.0012474","0.00041538","0","4194241","0 SPACEBEE-165","1 55094U 23001CP  24051.71357374  .00041538  00000-0  12474-2 0  9999","2 55094  97.4398 116.3107 0010028 204.7448 155.3315 15.34265635 63006","2023-001CP","55094","6841.240","93.856","469.965","456.244","0"
"GENERATED VIA SPACETRACK.ORG API","18 SPCS","55094","SPACEBEE-165","PAYLOAD","U","23001CP","2024-02-21 04:04:57","336384","15.34303054","0.0010057","97.4395","116.7706","203.1785","156.9006","0","999","6307","0.0012251","0.00040839","0","4194538","0 SPACEBEE-165","1 55094U 23001CP  24052.17010806  .00040839  00000-0  12251-2 0  9992","2 55094  97.4395 116.7706 0010057 203.1785 156.9006 15.34303054 63070","2023-001CP","55094","6841.128","93.854","469.874","456.113","0"
"GENERATED VIA SPACETRACK.ORG API","18 SPCS","55094","SPACEBEE-165","PAYLOAD","U","23001CP","2024-02-21 10:20:36","621024","15.34324359","0.001022","97.4395","117.0335","201.6981","158.383","0","999","6311","0.0012083","0.00040305","0","4194887","0 SPACEBEE-165","1 55094U 23001CP  24052.43097941  .00040305  00000-0  12083-2 0  9997","2 55094  97.4395 117.0335 0010220 201.6981 158.3830 15.34324359 63112","2023-001CP","55094","6841.065","93.852","469.922","455.939","0"
"GENERATED VIA SPACETRACK.ORG API","18 SPCS","55094","SPACEBEE-165","PAYLOAD","U","23001CP","2024-02-21 16:36:15","638688","15.34341756","0.0010223","97.4392","117.2964","200.7074","159.3756","0","999","6315","0.0010173","0.00033911","0","4195143","0 SPACEBEE-165","1 55094U 23001CP  24052.69184767  .00033911  00000-0  10173-2 0  9991","2 55094  97.4392 117.2964 0010223 200.7074 159.3756 15.34341756 63157","2023-001CP","55094","6841.013","93.851","469.872","455.885","0"
"GENERATED VIA SPACETRACK.ORG API","18 SPCS","55094","SPACEBEE-165","PAYLOAD","U","23001CP","2024-02-22 09:49:16","506048","15.34396871","0.0010284","97.4389","118.0193","198.1025","161.9853","0","999","6326","0.0011299","0.00037759","0","4195727","0 SPACEBEE-165","1 55094U 23001CP  24053.40921882  .00037759  00000-0  11299-2 0  9992","2 55094  97.4389 118.0193 0010284 198.1025 161.9853 15.34396871 63266","2023-001CP","55094","6840.850","93.848","469.750","455.679","0"
"GENERATED VIA SPACETRACK.ORG API","18 SPCS","55094","SPACEBEE-165","PAYLOAD","U","23001CP","2024-02-22 09:49:16","506048","15.34396871","0.0010284","97.4389","118.0193","198.1025","161.9853","0","999","6326","0.0011299","0.00037759","0","4195736","0 SPACEBEE-165","1 55094U 23001CP  24053.40921882  .00037759  00000-0  11299-2 0  9992","2 55094  97.4389 118.0193 0010284 198.1025 161.9853 15.34396871 63266","2023-001CP","55094","6840.850","93.848","469.750","455.679","0"
"GENERATED VIA SPACETRACK.ORG API","18 SPCS","55094","SPACEBEE-165","PAYLOAD","U","23001CP","2024-02-22 17:38:48","878880","15.34423055","0.0010296","97.4388","118.3479","197.0492","163.0406","0","999","6331","0.0011369","0.00038027","0","4196009","0 SPACEBEE-165","1 55094U 23001CP  24053.73528795  .00038027  00000-0  11369-2 0  9991","2 55094  97.4388 118.3479 0010296 197.0492 163.0406 15.34423055 63312","2023-001CP","55094","6840.772","93.846","469.680","455.593","0"
"GENERATED VIA SPACETRACK.ORG API","18 SPCS","55094","SPACEBEE-165","PAYLOAD","U","23001CP","2024-02-23 03:02:15","133920","15.34451309","0.0010307","97.4386","118.7422","195.8437","164.2485","0","999","6337","0.0010727","0.00035897","0","4196606","0 SPACEBEE-165","1 55094U 23001CP  24054.12656405  .00035897  00000-0  10727-2 0  9994","2 55094  97.4386 118.7422 0010307 195.8437 164.2485 15.34451309 63379","2023-001CP","55094","6840.688","93.845","469.603","455.502","0"
"GENERATED VIA SPACETRACK.ORG API","18 SPCS","55094","SPACEBEE-165","PAYLOAD","U","23001CP","2024-02-23 17:07:23","202336","15.3450067","0.0010333","97.4385","119.3338","193.4595","166.6374","0","999","6346","0.0011623","0.00038979","0","4196915","0 SPACEBEE-165","1 55094U 23001CP  24054.71346299  .00038979  00000-0  11623-2 0  9996","2 55094  97.4385 119.3338 0010333 193.4595 166.6374 15.34500670 63468","2023-001CP","55094","6840.541","93.842","469.474","455.338","0"
"GENERATED VIA SPACETRACK.ORG API","18 SPCS","55094","SPACEBEE-165","PAYLOAD","U","23001CP","2024-02-23 17:07:23","202336","15.3450067","0.0010333","97.4385","119.3338","193.4595","166.6374","0","999","6346","0.0011623","0.00038979","0","4196938","0 SPACEBEE-165","1 55094U 23001CP  24054.71346299  .00038979  00000-0  11623-2 0  9996","2 55094  97.4385 119.3338 0010333 193.4595 166.6374 15.34500670 63468","2023-001CP","55094","6840.541","93.842","469.474","455.338","0"
